[{"OBJECT_NAME":"STARLINK-31041","OBJECT_ID":"2023-192G","EPOCH":"2025-07-30T17:38:00.581280","MEAN_MOTION":15.3019939,"ECCENTRICITY":0.0001144,"INCLINATION":53.1614,"RA_OF_ASC_NODE":13.6579,"ARG_OF_PERICENTER":81.4121,"MEAN_ANOMALY":278.7009,"EPHEMERIS_TYPE":0,"CLASSIFICATION_TYPE":"U","NORAD_CAT_ID":58537,"ELEMENT_SET_NO":999,"REV_AT_EPOCH":9200,"BSTAR":2.0287e-5,"MEAN_MOTION_DOT":2.42e-6,"MEAN_MOTION_DDOT":0},{"OBJECT_NAME":"STARLINK-31014","OBJECT_ID":"2023-192H","EPOCH":"2025-07-31T03:17:31.544160","MEAN_MOTION":15.30195692,"ECCENTRICITY":0.0001138,"INCLINATION":53.1616,"RA_OF_ASC_NODE":11.9056,"ARG_OF_PERICENTER":104.0889,"MEAN_ANOMALY":256.0238,"EPHEMERIS_TYPE":0,"CLASSIFICATION_TYPE":"U","NORAD_CAT_ID":58538,"ELEMENT_SET_NO":999,"REV_AT_EPOCH":9320,"BSTAR":4.4374e-5,"MEAN_MOTION_DOT":9.55e-6,"MEAN_MOTION_DDOT":0},{"OBJECT_NAME":"STARLINK-31055","OBJECT_ID":"2023-192J","EPOCH":"2025-07-31T03:22:05.106432","MEAN_MOTION":15.30196345,"ECCENTRICITY":0.0001113,"INCLINATION":53.1612,"RA_OF_ASC_NODE":11.9232,"ARG_OF_PERICENTER":83.8158,"MEAN_ANOMALY":276.297,"EPHEMERIS_TYPE":0,"CLASSIFICATION_TYPE":"U","NORAD_CAT_ID":58539,"ELEMENT_SET_NO":999,"REV_AT_EPOCH":9325,"BSTAR":1.4444e-5,"MEAN_MOTION_DOT":6.9e-7,"MEAN_MOTION_DDOT":0},{"OBJECT_NAME":"STARLINK-31019","OBJECT_ID":"2023-192K","EPOCH":"2025-07-30T17:44:05.442432","MEAN_MOTION":15.30195443,"ECCENTRICITY":0.0001161,"INCLINATION":53.1615,"RA_OF_ASC_NODE":13.6854,"ARG_OF_PERICENTER":81.5555,"MEAN_ANOMALY":278.5578,"EPHEMERIS_TYPE":0,"CLASSIFICATION_TYPE":"U","NORAD_CAT_ID":58540,"ELEMENT_SET_NO":999,"REV_AT_EPOCH":9200,"BSTAR":4.8421e-5,"MEAN_MOTION_DOT":1.075e-5,"MEAN_MOTION_DDOT":0},{"OBJECT_NAME":"STARLINK-31045","OBJECT_ID":"2023-192L","EPOCH":"2025-07-31T01:49:46.627104","MEAN_MOTION":15.30189578,"ECCENTRICITY":0.0001161,"INCLINATION":53.1596,"RA_OF_ASC_NODE":88.9623,"ARG_OF_PERICENTER":61.0588,"MEAN_ANOMALY":299.0529,"EPHEMERIS_TYPE":0,"CLASSIFICATION_TYPE":"U","NORAD_CAT_ID":58541,"ELEMENT_SET_NO":999,"REV_AT_EPOCH":9214,"BSTAR":0.00014713,"MEAN_MOTION_DOT":3.999e-5,"MEAN_MOTION_DDOT":0},{"OBJECT_NAME":"STARLINK-31030","OBJECT_ID":"2023-192M","EPOCH":"2025-07-31T03:26:38.102784","MEAN_MOTION":15.30203602,"ECCENTRICITY":7.21e-5,"INCLINATION":53.1617,"RA_OF_ASC_NODE":11.9451,"ARG_OF_PERICENTER":118.0566,"MEAN_ANOMALY":242.0508,"EPHEMERIS_TYPE":0,"CLASSIFICATION_TYPE":"U","NORAD_CAT_ID":58542,"ELEMENT_SET_NO":999,"REV_AT_EPOCH":9325,"BSTAR":3.4426e-5,"MEAN_MOTION_DOT":6.61e-6,"MEAN_MOTION_DDOT":0},{"OBJECT_NAME":"STARLINK-31049","OBJECT_ID":"2023-192N","EPOCH":"2025-07-30T18:06:53.321184","MEAN_MOTION":15.30183321,"ECCENTRICITY":0.0001071,"INCLINATION":53.1609,"RA_OF_ASC_NODE":13.7821,"ARG_OF_PERICENTER":117.205,"MEAN_ANOMALY":242.906,"EPHEMERIS_TYPE":0,"CLASSIFICATION_TYPE":"U","NORAD_CAT_ID":58543,"ELEMENT_SET_NO":999,"REV_AT_EPOCH":9200,"BSTAR":-6.9677e-5,"MEAN_MOTION_DOT":-2.421e-5,"MEAN_MOTION_DDOT":0},{"OBJECT_NAME":"STARLINK-31048","OBJECT_ID":"2023-192P","EPOCH":"2025-07-31T04:09:00.345024","MEAN_MOTION":15.30194133,"ECCENTRICITY":0.000134,"INCLINATION":53.1602,"RA_OF_ASC_NODE":11.3737,"ARG_OF_PERICENTER":90.7911,"MEAN_ANOMALY":269.3243,"EPHEMERIS_TYPE":0,"CLASSIFICATION_TYPE":"U","NORAD_CAT_ID":58544,"ELEMENT_SET_NO":999,"REV_AT_EPOCH":9327,"BSTAR":0.00014998,"MEAN_MOTION_DOT":4.084e-5,"MEAN_MOTION_DDOT":0},{"OBJECT_NAME":"STARLINK-31057","OBJECT_ID":"2023-192Q","EPOCH":"2025-07-31T03:35:45.458880","MEAN_MOTION":15.3019725,"ECCENTRICITY":0.0001011,"INCLINATION":53.1613,"RA_OF_ASC_NODE":11.9814,"ARG_OF_PERICENTER":102.6773,"MEAN_ANOMALY":257.4341,"EPHEMERIS_TYPE":0,"CLASSIFICATION_TYPE":"U","NORAD_CAT_ID":58545,"ELEMENT_SET_NO":999,"REV_AT_EPOCH":9326,"BSTAR":2.7766e-5,"MEAN_MOTION_DOT":4.63e-6,"MEAN_MOTION_DDOT":0},{"OBJECT_NAME":"STARLINK-31050","OBJECT_ID":"2023-192R","EPOCH":"2025-07-30T18:16:00.050016","MEAN_MOTION":15.30191957,"ECCENTRICITY":0.0001089,"INCLINATION":53.1616,"RA_OF_ASC_NODE":13.8226,"ARG_OF_PERICENTER":98.8964,"MEAN_ANOMALY":261.216,"EPHEMERIS_TYPE":0,"CLASSIFICATION_TYPE":"U","NORAD_CAT_ID":58546,"ELEMENT_SET_NO":999,"REV_AT_EPOCH":9200,"BSTAR":6.2953e-6,"MEAN_MOTION_DOT":-1.73e-6,"MEAN_MOTION_DDOT":0},{"OBJECT_NAME":"STARLINK-31063","OBJECT_ID":"2023-192S","EPOCH":"2025-07-30T16:55:33.710592","MEAN_MOTION":15.30259092,"ECCENTRICITY":6.18e-5,"INCLINATION":53.1612,"RA_OF_ASC_NODE":3.5002,"ARG_OF_PERICENTER":71.4411,"MEAN_ANOMALY":288.6657,"EPHEMERIS_TYPE":0,"CLASSIFICATION_TYPE":"U","NORAD_CAT_ID":58547,"ELEMENT_SET_NO":999,"REV_AT_EPOCH":9214,"BSTAR":-0.00044438,"MEAN_MOTION_DOT":-0.0001352,"MEAN_MOTION_DDOT":0},{"OBJECT_NAME":"STARLINK-31016","OBJECT_ID":"2023-192T","EPOCH":"2025-07-30T17:15:12.526272","MEAN_MOTION":15.30190965,"ECCENTRICITY":0.0001119,"INCLINATION":53.1615,"RA_OF_ASC_NODE":13.517,"ARG_OF_PERICENTER":92.1978,"MEAN_ANOMALY":267.9151,"EPHEMERIS_TYPE":0,"CLASSIFICATION_TYPE":"U","NORAD_CAT_ID":58548,"ELEMENT_SET_NO":999,"REV_AT_EPOCH":9200,"BSTAR":9.907e-6,"MEAN_MOTION_DOT":-6.6e-7,"MEAN_MOTION_DDOT":0},{"OBJECT_NAME":"STARLINK-31053","OBJECT_ID":"2023-192U","EPOCH":"2025-07-30T18:20:33.817920","MEAN_MOTION":15.30189904,"ECCENTRICITY":0.0001221,"INCLINATION":53.162,"RA_OF_ASC_NODE":13.8413,"ARG_OF_PERICENTER":71.8644,"MEAN_ANOMALY":288.2489,"EPHEMERIS_TYPE":0,"CLASSIFICATION_TYPE":"U","NORAD_CAT_ID":58549,"ELEMENT_SET_NO":999,"REV_AT_EPOCH":9200,"BSTAR":-8.5376e-6,"MEAN_MOTION_DOT":-6.12e-6,"MEAN_MOTION_DDOT":0},{"OBJECT_NAME":"STARLINK-31056","OBJECT_ID":"2023-192V","EPOCH":"2025-07-30T17:19:46.714944","MEAN_MOTION":15.3019176,"ECCENTRICITY":9.19e-5,"INCLINATION":53.1617,"RA_OF_ASC_NODE":13.5826,"ARG_OF_PERICENTER":85.6595,"MEAN_ANOMALY":274.451,"EPHEMERIS_TYPE":0,"CLASSIFICATION_TYPE":"U","NORAD_CAT_ID":58550,"ELEMENT_SET_NO":999,"REV_AT_EPOCH":9200,"BSTAR":2.8463e-5,"MEAN_MOTION_DOT":4.84e-6,"MEAN_MOTION_DDOT":0},{"OBJECT_NAME":"STARLINK-30999","OBJECT_ID":"2023-192W","EPOCH":"2025-07-30T17:56:20.917248","MEAN_MOTION":15.301931,"ECCENTRICITY":0.0001317,"INCLINATION":53.1615,"RA_OF_ASC_NODE":3.6791,"ARG_OF_PERICENTER":88.7565,"MEAN_ANOMALY":271.3586,"EPHEMERIS_TYPE":0,"CLASSIFICATION_TYPE":"U","NORAD_CAT_ID":58551,"ELEMENT_SET_NO":999,"REV_AT_EPOCH":9214,"BSTAR":5.1225e-6,"MEAN_MOTION_DOT":-2.07e-6,"MEAN_MOTION_DDOT":0},{"OBJECT_NAME":"STARLINK-31046","OBJECT_ID":"2023-192X","EPOCH":"2025-07-31T03:55:31.159776","MEAN_MOTION":15.30188796,"ECCENTRICITY":0.0001188,"INCLINATION":53.1616,"RA_OF_ASC_NODE":12.067,"ARG_OF_PERICENTER":90.4505,"MEAN_ANOMALY":269.6632,"EPHEMERIS_TYPE":0,"CLASSIFICATION_TYPE":"U","NORAD_CAT_ID":58552,"ELEMENT_SET_NO":999,"REV_AT_EPOCH":9325,"BSTAR":1.6589e-5,"MEAN_MOTION_DOT":1.32e-6,"MEAN_MOTION_DDOT":0},{"OBJECT_NAME":"STARLINK-31044","OBJECT_ID":"2023-200A","EPOCH":"2025-07-30T16:30:26.608608","MEAN_MOTION":15.02532638,"ECCENTRICITY":0.0001577,"INCLINATION":43.0038,"RA_OF_ASC_NODE":296.1745,"ARG_OF_PERICENTER":273.7764,"MEAN_ANOMALY":86.2898,"EPHEMERIS_TYPE":0,"CLASSIFICATION_TYPE":"U","NORAD_CAT_ID":58589,"ELEMENT_SET_NO":999,"REV_AT_EPOCH":9020,"BSTAR":0.00016988,"MEAN_MOTION_DOT":2.092e-5,"MEAN_MOTION_DDOT":0}]
