STARLINK-31041          
1 58537U 23192G   25211.73472895  .00000242  00000+0  20287-4 0  9991
2 58537  53.1614  13.6579 0001144  81.4121 278.7009 15.30199390 92002
STARLINK-31014          
1 58538U 23192H   25212.13717065  .00000955  00000+0  44374-4 0  9992
2 58538  53.1616  11.9056 0001138 104.0889 256.0238 15.30195692 93209
STARLINK-31055          
1 58539U 23192J   25212.14033688  .00000069  00000+0  14444-4 0  9997
2 58539  53.1612  11.9232 0001113  83.8158 276.2970 15.30196345 93256
STARLINK-31019          
1 58540U 23192K   25211.73895188  .00001075  00000+0  48421-4 0  9994
2 58540  53.1615  13.6854 0001161  81.5555 278.5578 15.30195443 92008
STARLINK-31045          
1 58541U 23192L   25212.07623411  .00003999  00000+0  14713-3 0  9994
2 58541  53.1596  88.9623 0001161  61.0588 299.0529 15.30189578 92146
STARLINK-31030          
1 58542U 23192M   25212.14349656  .00000661  00000+0  34426-4 0  9996
2 58542  53.1617  11.9451 0000721 118.0566 242.0508 15.30203602 93259
STARLINK-31049          
1 58543U 23192N   25211.75478381 -.00002421  00000+0 -69677-4 0  9995
2 58543  53.1609  13.7821 0001071 117.2050 242.9060 15.30183321 92009
STARLINK-31048          
1 58544U 23192P   25212.17292066  .00004084  00000+0  14998-3 0  9997
2 58544  53.1602  11.3737 0001340  90.7911 269.3243 15.30194133 93272
STARLINK-31057          
1 58545U 23192Q   25212.14983170  .00000463  00000+0  27766-4 0  9993
2 58545  53.1613  11.9814 0001011 102.6773 257.4341 15.30197250 93260
STARLINK-31050          
1 58546U 23192R   25211.76111169 -.00000173  00000+0  62953-5 0  9999
2 58546  53.1616  13.8226 0001089  98.8964 261.2160 15.30191957 92006
STARLINK-31063          
1 58547U 23192S   25211.70525128 -.00013520  00000+0 -44438-3 0  9995
2 58547  53.1612   3.5002 0000618  71.4411 288.6657 15.30259092 92146
STARLINK-31016          
1 58548U 23192T   25211.71889498 -.00000066  00000+0  99070-5 0  9994
2 58548  53.1615  13.5170 0001119  92.1978 267.9151 15.30190965 92009
STARLINK-31053          
1 58549U 23192U   25211.76428030 -.00000612  00000+0 -85376-5 0  9993
2 58549  53.1620  13.8413 0001221  71.8644 288.2489 15.30189904 92008
STARLINK-31056          
1 58550U 23192V   25211.72206846  .00000484  00000+0  28463-4 0  9998
2 58550  53.1617  13.5826 0000919  85.6595 274.4510 15.30191760 92007
STARLINK-30999          
1 58551U 23192W   25211.74746432 -.00000207  00000+0  51225-5 0  9998
2 58551  53.1615   3.6791 0001317  88.7565 271.3586 15.30193100 92145
STARLINK-31046          
1 58552U 23192X   25212.16355509  .00000132  00000+0  16589-4 0  9996
2 58552  53.1616  12.0670 0001188  90.4505 269.6632 15.30188796 93257
STARLINK-31044          
1 58589U 23200A   25211.68780797  .00002092  00000+0  16988-3 0  9992
2 58589  43.0038 296.1745 0001577 273.7764  86.2898 15.02532638 90202
